ION SCV-022             
1 66682U 25276S   26068.74520243  .00001950  00000+0  17277-3 0  9990
2 66682  97.5376 142.9780 0004539 154.7099 205.4346 14.97347265 15192
STARLINK-36132          
1 67028U 25293AB  26068.48234300 -.00008334  00000+0 -69178-3 0  9993
2 67028  70.0004  95.1029 0003835 273.1454  86.9266 14.98312738 14858
